NORAD_CAT_ID,OBJECT_NAME,OBJECT_TYPE,EPOCH,MEAN_MOTION,ECCENTRICITY,INCLINATION,RA_OF_ASC_NODE,ARG_OF_PERICENTER,MEAN_ANOMALY,BSTAR,MEAN_MOTION_DOT,MEAN_MOTION_DDOT,TLE_LINE0,TLE_LINE1,TLE_LINE2,SEMIMAJOR_AXIS,PERIOD,APOGEE,PERIGEE,DECAYED
56484.0,STARLINK-6221,PAYLOAD,2024-04-21 08:00:01,14.98297991,0.0003084,70.0016,57.448,262.9989,33.754,0.0040532,0.00048566,0.0,0 STARLINK-6221,1 56484U 23064AN  24112.33334491  .00048566  00000-0  40532-2 0  9997,2 56484  70.0016  57.4480 0003084 262.9989  33.7540 14.98297991  5636,6950.292,96.109,574.3,570.013,0.0
56484.0,STARLINK-6221,PAYLOAD,2024-04-22 05:06:38,14.9838915,0.0003026,70.0037,55.2365,205.6293,154.4717,4.2069e-05,4.1e-06,0.0,0 STARLINK-6221,1 56484U 23064AN  24113.21294670  .00000410  00000-0  42069-4 0  9994,2 56484  70.0037  55.2365 0003026 205.6293 154.4717 14.98389150 53274,6950.01,96.103,573.978,569.772,0.0
56484.0,STARLINK-6221,PAYLOAD,2024-04-22 22:44:08,14.98353843,0.0002976,70.0035,53.3862,207.9147,152.1853,-0.00034192,-4.173e-05,0.0,0 STARLINK-6221,1 56484U 23064AN  24113.94732286 -.00004173  00000-0 -34192-3 0  9993,2 56484  70.0035  53.3862 0002976 207.9147 152.1853 14.98353843 53028,6950.119,96.105,574.053,569.916,0.0
56484.0,STARLINK-6221,PAYLOAD,2024-04-23 05:08:41,14.9833881,0.0002464,70.0025,52.71,229.7599,130.3345,-0.00047183,-5.719e-05,0.0,0 STARLINK-6221,1 56484U 23064AN  24114.21437312 -.00005719  00000-0 -47183-3 0  9997,2 56484  70.0025  52.7100 0002464 229.7599 130.3345 14.98338810 53425,6950.166,96.106,573.743,570.318,0.0
56484.0,STARLINK-6221,PAYLOAD,2024-04-23 06:44:49,14.98338437,0.000247,70.0026,52.5412,228.5075,131.5873,-0.00046397,-5.625e-05,0.0,0 STARLINK-6221,1 56484U 23064AN  24114.28113251 -.00005625  00000-0 -46397-3 0  9999,2 56484  70.0026  52.5412 0002470 228.5075 131.5873 14.98338437 53078,6950.167,96.106,573.748,570.315,0.0
56484.0,STARLINK-6221,PAYLOAD,2024-04-23 21:10:00,14.98344593,0.0002518,70.0047,51.0298,215.3243,144.7749,-0.00027381,-3.359e-05,0.0,0 STARLINK-6221,1 56484U 23064AN  24114.88195574 -.00003359  00000-0 -27381-3 0  9997,2 56484  70.0047  51.0298 0002518 215.3243 144.7749 14.98344593 53529,6950.148,96.106,573.763,570.263,0.0
56484.0,STARLINK-6221,PAYLOAD,2024-04-23 22:46:08,14.9834428,0.000249,70.005,50.8614,215.0647,145.0348,-0.00026018,-3.197e-05,0.0,0 STARLINK-6221,1 56484U 23064AN  24114.94871511 -.00003197  00000-0 -26018-3 0  9992,2 56484  70.0050  50.8614 0002490 215.0647 145.0348 14.98344280 53179,6950.149,96.106,573.744,570.283,0.0
56484.0,STARLINK-6221,PAYLOAD,2024-04-24 06:00:00,14.98332812,0.0003096,70.0027,50.0946,272.7259,272.1025,-0.002453,-0.00029242,0.0,0 STARLINK-6221,1 56484U 23064AN  24115.25001157 -.00029242  00000-0 -24530-2 0  9993,2 56484  70.0027  50.0946 0003096 272.7259 272.1025 14.98332812 53571,6950.184,96.107,574.201,569.897,0.0
56484.0,STARLINK-6221,PAYLOAD,2024-04-24 14:00:01,14.98289107,0.0003194,70.0026,49.2543,267.7373,274.5723,0.0048349,0.00058015,0.0,0 STARLINK-6221,1 56484U 23064AN  24115.58334491  .00058015  00000-0  48349-2 0  9991,2 56484  70.0026  49.2543 0003194 267.7373 274.5723 14.98289107  5760,6950.319,96.11,574.404,569.964,0.0
56484.0,STARLINK-6221,PAYLOAD,2024-04-24 22:00:00,14.98357259,0.0003238,70.0029,48.4141,267.0195,272.7354,-0.0010822,-0.00012991,0.0,0 STARLINK-6221,1 56484U 23064AN  24115.91667824 -.00012991  00000-0 -10822-2 0  9997,2 56484  70.0029  48.4141 0003238 267.0195 272.7354 14.98357259 53679,6950.109,96.105,574.224,569.723,0.0
56484.0,STARLINK-6221,PAYLOAD,2024-04-25 05:12:42,14.98321272,0.0002571,70.0022,47.6594,255.0393,105.0482,0.00015689,1.779e-05,0.0,0 STARLINK-6221,1 56484U 23064AN  24116.21715810  .00001779  00000-0  15689-3 0  9997,2 56484  70.0022  47.6594 0002571 255.0393 105.0482 14.98321272 53723,6950.22,96.108,573.872,570.298,0.0
56484.0,STARLINK-6221,PAYLOAD,2024-04-25 22:50:10,14.98336077,0.0002667,70.0022,45.8079,257.7949,102.2911,-1.77e-05,-3.04e-06,0.0,0 STARLINK-6221,1 56484U 23064AN  24116.95151475 -.00000304  00000-0 -17700-4 0  9991,2 56484  70.0022  45.8079 0002667 257.7949 102.2911 14.98336077 53470,6950.174,96.107,573.893,570.185,0.0
56484.0,STARLINK-6221,PAYLOAD,2024-04-26 05:14:42,14.98338062,0.0002452,70.0022,45.132,264.6907,95.3972,4.2633e-05,4.16e-06,0.0,0 STARLINK-6221,1 56484U 23064AN  24117.21855119  .00000416  00000-0  42633-4 0  9992,2 56484  70.0022  45.1320 0002452 264.6907  95.3972 14.98338062 53874,6950.168,96.106,573.737,570.329,0.0
56484.0,STARLINK-6221,PAYLOAD,2024-04-26 19:39:55,14.98331926,0.0002385,70.0028,43.6172,266.9099,93.1788,0.00010004,1.101e-05,0.0,0 STARLINK-6221,1 56484U 23064AN  24117.81939225  .00001101  00000-0  10004-3 0  9997,2 56484  70.0028  43.6172 0002385 266.9099  93.1788 14.98331926 53604,6950.187,96.107,573.71,570.394,0.0
56484.0,STARLINK-6221,PAYLOAD,2024-04-27 11:41:16,14.98330282,0.0002443,70.0027,41.9343,274.6836,85.4044,-2.83e-05,-4.31e-06,0.0,0 STARLINK-6221,1 56484U 23064AN  24118.48699458 -.00000431  00000-0 -28300-4 0  9998,2 56484  70.0027  41.9343 0002443 274.6836  85.4044 14.98330282 54068,6950.192,96.107,573.755,570.359,0.0
56484.0,STARLINK-6221,PAYLOAD,2024-04-27 21:18:05,14.98326236,0.000235,70.002,40.9262,267.5701,92.5189,-0.00010825,-1.384e-05,0.0,0 STARLINK-6221,1 56484U 23064AN  24118.88755963 -.00001384  00000-0 -10825-3 0  9996,2 56484  70.0020  40.9262 0002350 267.5701  92.5189 14.98326236 53768,6950.205,96.107,573.703,570.436,0.0
56484.0,STARLINK-6221,PAYLOAD,2024-04-28 03:42:37,14.98321004,0.0002521,70.0021,40.2547,251.6297,108.4588,-0.00013805,-1.739e-05,0.0,0 STARLINK-6221,1 56484U 23064AN  24119.15460481 -.00001739  00000-0 -13805-3 0  9990,2 56484  70.0021  40.2547 0002521 251.6297 108.4588 14.98321004 54165,6950.221,96.108,573.838,570.334,0.0
56484.0,STARLINK-6221,PAYLOAD,2024-04-28 11:43:13,14.98374337,0.0002637,70.0025,39.4088,269.9497,90.136,0.00041576,4.877e-05,0.0,0 STARLINK-6221,1 56484U 23064AN  24119.48835319  .00004877  00000-0  41576-3 0  9992,2 56484  70.0025  39.4088 0002637 269.9497  90.1360 14.98374337 54219,6950.056,96.104,573.754,570.088,0.0
56484.0,STARLINK-6221,PAYLOAD,2024-04-28 22:56:10,14.98358367,0.0003194,70.0025,38.2307,279.957,80.1229,0.00028,3.252e-05,0.0,0 STARLINK-6221,1 56484U 23064AN  24119.95567479  .00003252  00000-0  28000-3 0  9996,2 56484  70.0025  38.2307 0003194 279.9570  80.1229 14.98358367 53927,6950.105,96.105,574.19,569.75,0.0
56484.0,STARLINK-6221,PAYLOAD,2024-04-29 03:44:37,14.98317135,0.0002864,70.0013,37.7272,265.9537,94.1294,-0.00031438,-3.841e-05,0.0,0 STARLINK-6221,1 56484U 23064AN  24120.15599524 -.00003841  00000-0 -31438-3 0  9991,2 56484  70.0013  37.7272 0002864 265.9537  94.1294 14.98317135 54319,6950.233,96.108,574.088,570.107,0.0
56484.0,STARLINK-6221,PAYLOAD,2024-04-29 11:45:18,14.98324057,0.000316,70.0007,36.8842,269.0903,90.9894,-0.00034666,-4.226e-05,0.0,0 STARLINK-6221,1 56484U 23064AN  24120.48979192 -.00004226  00000-0 -34666-3 0  9994,2 56484  70.0007  36.8842 0003160 269.0903  90.9894 14.98324057 54363,6950.211,96.107,574.273,569.88,0.0
56484.0,STARLINK-6221,PAYLOAD,2024-04-29 21:22:07,14.98307182,0.0002931,70.0009,35.8745,270.9889,89.0934,-5.0413e-05,-6.94e-06,0.0,0 STARLINK-6221,1 56484U 23064AN  24120.89035952 -.00000694  00000-0 -50413-4 0  9990,2 56484  70.0009  35.8745 0002931 270.9889  89.0934 14.98307182 54426,6950.263,96.108,574.166,570.091,0.0
56484.0,STARLINK-6221,PAYLOAD,2024-04-29 22:58:15,14.98308771,0.0002805,70.0012,35.707,269.2047,90.879,-4.0473e-05,-5.76e-06,0.0,0 STARLINK-6221,1 56484U 23064AN  24120.95711973 -.00000576  00000-0 -40473-4 0  9995,2 56484  70.0012  35.7070 0002805 269.2047  90.8790 14.98308771 54073,6950.259,96.108,574.073,570.174,0.0
56484.0,STARLINK-6221,PAYLOAD,2024-04-30 03:46:39,14.98314883,0.0002933,70.0009,35.202,265.1659,94.9166,-3.2222e-05,-4.77e-06,0.0,0 STARLINK-6221,1 56484U 23064AN  24121.15739646 -.00000477  00000-0 -32222-4 0  9998,2 56484  70.0009  35.2020 0002933 265.1659  94.9166 14.98314883 54461,6950.24,96.108,574.143,570.066,0.0
56484.0,STARLINK-6221,PAYLOAD,2024-04-30 11:47:19,14.98321274,0.0002999,70.0009,34.3598,267.0955,92.9861,-2.9814e-05,-4.49e-06,0.0,0 STARLINK-6221,1 56484U 23064AN  24121.49119395 -.00000449  00000-0 -29814-4 0  9990,2 56484  70.0009  34.3598 0002999 267.0955  92.9861 14.98321274 54151,6950.22,96.108,574.169,570.001,0.0
56484.0,STARLINK-6221,PAYLOAD,2024-04-30 21:24:06,14.98348145,0.0002983,70.0009,33.3498,269.5864,90.4953,-0.00042048,-5.109e-05,0.0,0 STARLINK-6221,1 56484U 23064AN  24121.89174414 -.00005109  00000-0 -42048-3 0  9998,2 56484  70.0009  33.3498 0002983 269.5864  90.4953 14.98348145 54575,6950.137,96.106,574.075,569.929,0.0
56484.0,STARLINK-6221,PAYLOAD,2024-04-30 23:00:14,14.98348718,0.0002976,70.0008,33.1816,269.6977,90.3842,-0.00040367,-4.908e-05,0.0,0 STARLINK-6221,1 56484U 23064AN  24121.95850279 -.00004908  00000-0 -40367-3 0  9993,2 56484  70.0008  33.1816 0002976 269.6977  90.3842 14.98348718 54228,6950.135,96.106,574.068,569.932,0.0
56484.0,STARLINK-6221,PAYLOAD,2024-05-01 03:48:38,14.98361136,0.0003014,70.0007,32.6767,270.026,90.0554,-0.00046326,-5.621e-05,0.0,0 STARLINK-6221,1 56484U 23064AN  24122.15877434 -.00005621  00000-0 -46326-3 0  9992,2 56484  70.0007  32.6767 0003014 270.0260  90.0554 14.98361136 54610,6950.097,96.105,574.056,569.867,0.0
56484.0,STARLINK-6221,PAYLOAD,2024-05-01 11:49:19,14.98319659,0.0003094,70.0007,31.8347,269.8331,90.2473,0.00023681,2.733e-05,0.0,0 STARLINK-6221,1 56484U 23064AN  24122.49258574  .00002733  00000-0  23681-3 0  9995,2 56484  70.0007  31.8347 0003094 269.8331  90.2473 14.98319659 54668,6950.225,96.108,574.24,569.939,0.0
56484.0,STARLINK-6221,PAYLOAD,2024-05-02 03:50:39,14.98328895,0.0003109,70.0007,30.1518,270.2394,89.8409,0.00019886,2.28e-05,0.0,0 STARLINK-6221,1 56484U 23064AN  24123.16018379  .00002280  00000-0  19886-3 0  9996,2 56484  70.0007  30.1518 0003109 270.2394  89.8409 14.98328895 54768,6950.196,96.107,574.222,569.9,0.0
